OBJECT_NAME,OBJECT_ID,EPOCH,MEAN_MOTION,ECCENTRICITY,INCLINATION,RA_OF_ASC_NODE,ARG_OF_PERICENTER,MEAN_ANOMALY,EPHEMERIS_TYPE,CLASSIFICATION_TYPE,NORAD_CAT_ID,ELEMENT_SET_NO,REV_AT_EPOCH,BSTAR,MEAN_MOTION_DOT,MEAN_MOTION_DDOT
ONEWEB-0053,2020-008AC,2026-07-02T13:08:51.368928,13.10374401,.00017717,87.8817,33.2232,70.2201,289.9117,0,U,45157,999,30992,-.60631017E-3,-.199E-5,0
ONEWEB-0054,2020-008AD,2026-07-02T03:00:30.919104,13.10371570,.00018848,87.8825,33.2919,85.0029,275.1314,0,U,45158,999,30998,.88955888E-3,.323E-5,0
ONEWEB-0056,2020-008AE,2026-07-02T13:18:26.404992,13.10374396,.00020733,87.8829,33.1997,86.2529,273.8835,0,U,45159,999,31019,.21296396E-3,.87E-6,0
ONEWEB-0057,2020-008AF,2026-07-02T13:43:17.802048,13.10371599,.00018787,87.8822,33.2081,69.0802,291.0527,0,U,45160,999,31036,.18050981E-2,.643E-5,0
ONEWEB-0058,2020-008AG,2026-07-02T13:24:17.166528,13.10376317,.00017002,87.8819,33.2158,91.9399,268.1923,0,U,45161,999,31043,.76467356E-3,.28E-5,0
ONEWEB-0059,2020-008AH,2026-07-02T13:18:51.630336,13.10372810,.00016279,87.8819,33.2158,78.7104,281.4206,0,U,45162,999,31033,.19462851E-3,.81E-6,0
ONEWEB-0062,2020-008AJ,2026-07-02T13:52:41.369376,13.10372195,.00018533,87.8825,33.1995,95.8880,264.2459,0,U,45163,999,31020,.15020215E-2,.537E-5,0
ONEWEB-0065,2020-008AK,2026-07-02T00:01:53.905440,13.10375821,.00019876,87.8823,33.3227,77.6401,282.4948,0,U,45164,999,30982,-.15826482E-2,-.54E-5,0
ONEWEB-0066,2020-020A,2026-07-02T11:34:34.197600,13.11414740,.00016532,87.8873,18.0253,88.5978,271.5339,0,U,45424,999,30468,-.11076416E-2,-.38E-5,0
ONEWEB-0067,2020-020B,2026-07-02T10:39:08.424864,13.11426125,.00018349,87.8900,17.9578,82.3055,277.8281,0,U,45425,999,30473,.11267798E-2,.412E-5,0
ONEWEB-0080,2020-020C,2026-07-02T12:28:30.242208,13.11417192,.00018639,87.8891,18.0159,97.8248,262.3092,0,U,45426,999,30471,.89604257E-3,.33E-5,0
ONEWEB-0090,2020-020D,2026-07-02T11:20:08.020320,13.11414721,.0001873,87.8885,18.0297,91.1345,268.9997,0,U,45427,999,30467,.3199309E-5,.14E-6,0
ONEWEB-0061,2020-020E,2026-07-02T12:06:06.704928,13.11417477,.00018109,87.8887,18.0079,89.1217,271.0118,0,U,45428,999,30463,-.77600389E-3,-.262E-5,0
ONEWEB-0081,2020-020F,2026-07-02T00:40:14.741760,13.11415876,.00016856,87.8882,18.1123,83.4868,276.6452,0,U,45429,999,30468,-.15693827E-2,-.543E-5,0
ONEWEB-0069,2020-020G,2026-07-02T11:42:07.114176,13.11418547,.00016373,87.8882,18.0241,86.1265,274.0051,0,U,45430,999,30467,-.15857998E-2,-.549E-5,0
ONEWEB-0031,2020-020H,2026-07-02T12:33:11.030112,13.11417092,.00018764,87.8876,18.0209,94.0084,266.1258,0,U,45431,999,30466,.1168329E-2,.427E-5,0
ONEWEB-0027,2020-020J,2026-07-02T10:45:40.220352,13.17652342,.00022951,87.9134,2.8290,98.9724,261.1668,0,U,45432,999,30836,.40841185E-4,.29E-6,0
ONEWEB-0064,2020-020K,2026-07-02T12:30:44.406720,13.11418334,.00019406,87.8881,18.0136,92.1879,267.9471,0,U,45433,999,30469,.10697617E-2,.392E-5,0
ONEWEB-0018,2020-020L,2026-07-02T11:27:02.426688,13.11413965,.00014592,87.8878,18.0219,93.7849,266.3446,0,U,45434,999,30463,-.54699716E-3,-.181E-5,0
ONEWEB-0083,2020-020M,2026-07-02T13:02:40.755264,13.11413897,.00018375,87.8883,18.0031,91.3275,268.8064,0,U,45435,999,30468,.6372642E-3,.239E-5,0
ONEWEB-0095,2020-020N,2026-07-02T11:00:36.069984,13.11415196,.00025279,87.8884,18.0286,84.0742,276.0675,0,U,45436,999,30467,.13406697E-2,.488E-5,0
ONEWEB-0092,2020-020P,2026-07-02T11:44:21.045408,13.11411188,.00019811,87.8886,18.0137,81.6472,278.4880,0,U,45437,999,30479,-.15065551E-2,-.521E-5,0
ONEWEB-0085,2020-020Q,2026-07-02T11:12:24.882624,13.11414390,.00018496,87.8878,18.0242,88.8290,271.3050,0,U,45438,999,30467,.69396919E-3,.259E-5,0
ONEWEB-0096,2020-020R,2026-07-02T13:04:54.563808,13.11413754,.00019572,87.8883,18.0056,87.4139,272.7213,0,U,45439,999,30467,.40913526E-3,.158E-5,0
ONEWEB-0037,2020-020S,2026-07-02T11:54:38.696544,13.11914450,.00019148,87.8896,17.9880,87.0672,273.0675,0,U,45440,999,30470,-.12319756E-2,-.427E-5,0
ONEWEB-0042,2020-020T,2026-07-02T11:00:12.888864,13.11415539,.00017763,87.8885,18.0190,85.5072,274.6259,0,U,45441,999,30466,.11455659E-2,.419E-5,0
ONEWEB-0098,2020-020U,2026-07-02T10:54:17.630208,13.11417678,.00018389,87.8882,18.0289,90.9972,269.1367,0,U,45442,999,30464,.15420602E-2,.559E-5,0
ONEWEB-0055,2020-020V,2026-07-02T12:13:26.959584,13.11418027,.00018608,87.8887,18.0169,90.8335,269.3006,0,U,45443,999,30462,-.33021471E-3,-.104E-5,0
ONEWEB-0093,2020-020W,2026-07-02T11:47:20.395392,13.10892352,.00016412,87.8884,18.0147,81.0817,279.0496,0,U,45444,999,30468,-.16276551E-2,-.56E-5,0
ONEWEB-0029,2020-020X,2026-07-02T12:23:36.768192,13.11417107,.00016094,87.8878,18.0165,84.4644,275.6667,0,U,45445,999,30466,.70567117E-3,.263E-5,0
