ONEWEB-0053             
1 45157U 20008AC  26183.54781677 -.00000199  00000+0 -60631-3 0  9996
2 45157  87.8817  33.2232 0001771  70.2201 289.9117 13.10374401309920
ONEWEB-0054             
1 45158U 20008AD  26183.12535786  .00000323  00000+0  88956-3 0  9996
2 45158  87.8825  33.2919 0001884  85.0029 275.1314 13.10371570309985
ONEWEB-0056             
1 45159U 20008AE  26183.55447228  .00000087  00000+0  21296-3 0  9998
2 45159  87.8829  33.1997 0002073  86.2529 273.8835 13.10374396310191
ONEWEB-0057             
1 45160U 20008AF  26183.57173382  .00000643  00000+0  18051-2 0  9991
2 45160  87.8822  33.2081 0001878  69.0802 291.0527 13.10371599310367
ONEWEB-0058             
1 45161U 20008AG  26183.55853202  .00000280  00000+0  76467-3 0  9999
2 45161  87.8819  33.2158 0001700  91.9399 268.1923 13.10376317310434
ONEWEB-0059             
1 45162U 20008AH  26183.55476424  .00000081  00000+0  19463-3 0  9999
2 45162  87.8819  33.2158 0001627  78.7104 281.4206 13.10372810310335
ONEWEB-0062             
1 45163U 20008AJ  26183.57825659  .00000537  00000+0  15020-2 0  9990
2 45163  87.8825  33.1995 0001853  95.8880 264.2459 13.10372195310204
ONEWEB-0065             
1 45164U 20008AK  26183.00131835 -.00000540  00000+0 -15826-2 0  9995
2 45164  87.8823  33.3227 0001987  77.6401 282.4948 13.10375821309828
ONEWEB-0066             
1 45424U 20020A   26183.48234025 -.00000380  00000+0 -11076-2 0  9990
2 45424  87.8873  18.0253 0001653  88.5978 271.5339 13.11414740304688
ONEWEB-0067             
1 45425U 20020B   26183.44384751  .00000412  00000+0  11268-2 0  9996
2 45425  87.8900  17.9578 0001834  82.3055 277.8281 13.11426125304738
ONEWEB-0080             
1 45426U 20020C   26183.51979447  .00000330  00000+0  89604-3 0  9996
2 45426  87.8891  18.0159 0001863  97.8248 262.3092 13.11417192304713
ONEWEB-0090             
1 45427U 20020D   26183.47231505  .00000014  00000+0  31993-5 0  9997
2 45427  87.8885  18.0297 0001873  91.1345 268.9997 13.11414721304672
ONEWEB-0061             
1 45428U 20020E   26183.50424427 -.00000262  00000+0 -77600-3 0  9999
2 45428  87.8887  18.0079 0001810  89.1217 271.0118 13.11417477304636
ONEWEB-0081             
1 45429U 20020F   26183.02794840 -.00000543  00000+0 -15694-2 0  9992
2 45429  87.8882  18.1123 0001685  83.4868 276.6452 13.11415876304680
ONEWEB-0069             
1 45430U 20020G   26183.48758234 -.00000549  00000+0 -15858-2 0  9999
2 45430  87.8882  18.0241 0001637  86.1265 274.0051 13.11418547304674
ONEWEB-0031             
1 45431U 20020H   26183.52304433  .00000427  00000+0  11683-2 0  9998
2 45431  87.8876  18.0209 0001876  94.0084 266.1258 13.11417092304668
ONEWEB-0027             
1 45432U 20020J   26183.44838218  .00000029  00000+0  40841-4 0  9991
2 45432  87.9134   2.8290 0002295  98.9724 261.1668 13.17652342308364
ONEWEB-0064             
1 45433U 20020K   26183.52134730  .00000392  00000+0  10698-2 0  9997
2 45433  87.8881  18.0136 0001940  92.1879 267.9471 13.11418334304697
ONEWEB-0018             
1 45434U 20020L   26183.47711142 -.00000181  00000+0 -54700-3 0  9991
2 45434  87.8878  18.0219 0001459  93.7849 266.3446 13.11413965304639
ONEWEB-0083             
1 45435U 20020M   26183.54352726  .00000239  00000+0  63726-3 0  9999
2 45435  87.8883  18.0031 0001837  91.3275 268.8064 13.11413897304687
ONEWEB-0095             
1 45436U 20020N   26183.45875081  .00000488  00000+0  13407-2 0  9990
2 45436  87.8884  18.0286 0002527  84.0742 276.0675 13.11415196304678
ONEWEB-0092             
1 45437U 20020P   26183.48913247 -.00000521  00000+0 -15066-2 0  9994
2 45437  87.8886  18.0137 0001981  81.6472 278.4880 13.11411188304796
ONEWEB-0085             
1 45438U 20020Q   26183.46695466  .00000259  00000+0  69397-3 0  9996
2 45438  87.8878  18.0242 0001849  88.8290 271.3050 13.11414390304671
ONEWEB-0096             
1 45439U 20020R   26183.54507597  .00000158  00000+0  40914-3 0  9995
2 45439  87.8883  18.0056 0001957  87.4139 272.7213 13.11413754304677
ONEWEB-0037             
1 45440U 20020S   26183.49628121 -.00000427  00000+0 -12320-2 0  9998
2 45440  87.8896  17.9880 0001914  87.0672 273.0675 13.11914450304706
ONEWEB-0042             
1 45441U 20020T   26183.45848251  .00000419  00000+0  11456-2 0  9991
2 45441  87.8885  18.0190 0001776  85.5072 274.6259 13.11415539304668
ONEWEB-0098             
1 45442U 20020U   26183.45437072  .00000559  00000+0  15421-2 0  9998
2 45442  87.8882  18.0289 0001838  90.9972 269.1367 13.11417678304646
ONEWEB-0055             
1 45443U 20020V   26183.50933981 -.00000104  00000+0 -33021-3 0  9990
2 45443  87.8887  18.0169 0001860  90.8335 269.3006 13.11418027304625
ONEWEB-0093             
1 45444U 20020W   26183.49120828 -.00000560  00000+0 -16277-2 0  9996
2 45444  87.8884  18.0147 0001641  81.0817 279.0496 13.10892352304686
ONEWEB-0029             
1 45445U 20020X   26183.51639778  .00000263  00000+0  70567-3 0  9990
2 45445  87.8878  18.0165 0001609  84.4644 275.6667 13.11417107304661
